CCSDS_OMM_VERS = 2.0
CREATION_DATE  = 
ORIGINATOR     = 

OBJECT_NAME    = STARLINK-36165
OBJECT_ID      = 2025-286N
CENTER_NAME    = EARTH
REF_FRAME      = TEME
TIME_SYSTEM    = UTC
MEAN_ELEMENT_THEORY = SGP/SGP4

EPOCH          = 2026-01-04T02:12:28.433664
MEAN_MOTION    = 15.49314114
ECCENTRICITY   = .00013922
INCLINATION    = 53.1595
RA_OF_ASC_NODE = 300.8347
ARG_OF_PERICENTER = 52.8867
MEAN_ANOMALY   = 307.2269

EPHEMERIS_TYPE = 0
CLASSIFICATION_TYPE = U
NORAD_CAT_ID   = 66937
ELEMENT_SET_NO = 999
REV_AT_EPOCH   = 549
BSTAR          = .18768782E-2
MEAN_MOTION_DOT = .105374E-2
MEAN_MOTION_DDOT = 0

CCSDS_OMM_VERS = 2.0
CREATION_DATE  = 
ORIGINATOR     = 

OBJECT_NAME    = STARLINK-36155
OBJECT_ID      = 2025-286P
CENTER_NAME    = EARTH
REF_FRAME      = TEME
TIME_SYSTEM    = UTC
MEAN_ELEMENT_THEORY = SGP/SGP4

EPOCH          = 2026-01-03T08:00:03.000384
MEAN_MOTION    = 15.49379009
ECCENTRICITY   = .00010904
INCLINATION    = 53.1586
RA_OF_ASC_NODE = 304.4574
ARG_OF_PERICENTER = 88.1775
MEAN_ANOMALY   = 0.2121

EPHEMERIS_TYPE = 0
CLASSIFICATION_TYPE = U
NORAD_CAT_ID   = 66938
ELEMENT_SET_NO = 999
REV_AT_EPOCH   = 546
BSTAR          = -.28275309E-2
MEAN_MOTION_DOT = -.155008E-2
MEAN_MOTION_DDOT = 0

CCSDS_OMM_VERS = 2.0
CREATION_DATE  = 
ORIGINATOR     = 

OBJECT_NAME    = STARLINK-36154
OBJECT_ID      = 2025-286Q
CENTER_NAME    = EARTH
REF_FRAME      = TEME
TIME_SYSTEM    = UTC
MEAN_ELEMENT_THEORY = SGP/SGP4

EPOCH          = 2026-01-04T04:29:27.657024
MEAN_MOTION    = 15.39586795
ECCENTRICITY   = .00010411
INCLINATION    = 53.1606
RA_OF_ASC_NODE = 300.7193
ARG_OF_PERICENTER = 118.5694
MEAN_ANOMALY   = 241.5416

EPHEMERIS_TYPE = 0
CLASSIFICATION_TYPE = U
NORAD_CAT_ID   = 66939
ELEMENT_SET_NO = 999
REV_AT_EPOCH   = 550
BSTAR          = .15183157E-2
MEAN_MOTION_DOT = .6075E-3
MEAN_MOTION_DDOT = 0

CCSDS_OMM_VERS = 2.0
CREATION_DATE  = 
ORIGINATOR     = 

OBJECT_NAME    = STARLINK-36121
OBJECT_ID      = 2025-286R
CENTER_NAME    = EARTH
REF_FRAME      = TEME
TIME_SYSTEM    = UTC
MEAN_ELEMENT_THEORY = SGP/SGP4

EPOCH          = 2026-01-04T02:49:17.699808
MEAN_MOTION    = 15.39576299
ECCENTRICITY   = .00015417
INCLINATION    = 53.1629
RA_OF_ASC_NODE = 300.9962
ARG_OF_PERICENTER = 70.8613
MEAN_ANOMALY   = 289.2559

EPHEMERIS_TYPE = 0
CLASSIFICATION_TYPE = U
NORAD_CAT_ID   = 66940
ELEMENT_SET_NO = 999
REV_AT_EPOCH   = 549
BSTAR          = .16317045E-2
MEAN_MOTION_DOT = .65334E-3
MEAN_MOTION_DDOT = 0

CCSDS_OMM_VERS = 2.0
CREATION_DATE  = 
ORIGINATOR     = 

OBJECT_NAME    = STARLINK-36088
OBJECT_ID      = 2025-286S
CENTER_NAME    = EARTH
REF_FRAME      = TEME
TIME_SYSTEM    = UTC
MEAN_ELEMENT_THEORY = SGP/SGP4

EPOCH          = 2026-01-04T05:07:33.393216
MEAN_MOTION    = 15.49325174
ECCENTRICITY   = .00015018
INCLINATION    = 53.1602
RA_OF_ASC_NODE = 300.1683
ARG_OF_PERICENTER = 67.4853
MEAN_ANOMALY   = 292.6315

EPHEMERIS_TYPE = 0
CLASSIFICATION_TYPE = U
NORAD_CAT_ID   = 66941
ELEMENT_SET_NO = 999
REV_AT_EPOCH   = 551
BSTAR          = .15672387E-2
MEAN_MOTION_DOT = .8775E-3
MEAN_MOTION_DDOT = 0

CCSDS_OMM_VERS = 2.0
CREATION_DATE  = 
ORIGINATOR     = 

OBJECT_NAME    = STARLINK-36100
OBJECT_ID      = 2025-286T
CENTER_NAME    = EARTH
REF_FRAME      = TEME
TIME_SYSTEM    = UTC
MEAN_ELEMENT_THEORY = SGP/SGP4

EPOCH          = 2026-01-04T06:00:02.000160
MEAN_MOTION    = 15.39571140
ECCENTRICITY   = .00007197
INCLINATION    = 53.1590
RA_OF_ASC_NODE = 300.3206
ARG_OF_PERICENTER = 74.8462
MEAN_ANOMALY   = 325.5808

EPHEMERIS_TYPE = 0
CLASSIFICATION_TYPE = U
NORAD_CAT_ID   = 66942
ELEMENT_SET_NO = 999
REV_AT_EPOCH   = 553
BSTAR          = .22558469E-2
MEAN_MOTION_DOT = .90767E-3
MEAN_MOTION_DDOT = 0

CCSDS_OMM_VERS = 2.0
CREATION_DATE  = 
ORIGINATOR     = 

OBJECT_NAME    = STARLINK-36109
OBJECT_ID      = 2025-286U
CENTER_NAME    = EARTH
REF_FRAME      = TEME
TIME_SYSTEM    = UTC
MEAN_ELEMENT_THEORY = SGP/SGP4

EPOCH          = 2026-01-04T06:00:02.000160
MEAN_MOTION    = 15.39566175
ECCENTRICITY   = .00015375
INCLINATION    = 53.1593
RA_OF_ASC_NODE = 300.2176
ARG_OF_PERICENTER = 89.8177
MEAN_ANOMALY   = 2.1222

EPHEMERIS_TYPE = 0
CLASSIFICATION_TYPE = U
NORAD_CAT_ID   = 66943
ELEMENT_SET_NO = 999
REV_AT_EPOCH   = 553
BSTAR          = .23073405E-2
MEAN_MOTION_DOT = .92859E-3
MEAN_MOTION_DDOT = 0

CCSDS_OMM_VERS = 2.0
CREATION_DATE  = 
ORIGINATOR     = 

OBJECT_NAME    = STARLINK-36112
OBJECT_ID      = 2025-286V
CENTER_NAME    = EARTH
REF_FRAME      = TEME
TIME_SYSTEM    = UTC
MEAN_ELEMENT_THEORY = SGP/SGP4

EPOCH          = 2026-01-04T06:00:02.000160
MEAN_MOTION    = 15.39875367
ECCENTRICITY   = .00011992
INCLINATION    = 53.1600
RA_OF_ASC_NODE = 300.1140
ARG_OF_PERICENTER = 88.6581
MEAN_ANOMALY   = 54.6953

EPHEMERIS_TYPE = 0
CLASSIFICATION_TYPE = U
NORAD_CAT_ID   = 66944
ELEMENT_SET_NO = 999
REV_AT_EPOCH   = 560
BSTAR          = -.11123517E-1
MEAN_MOTION_DOT = -.424979E-2
MEAN_MOTION_DDOT = 0

CCSDS_OMM_VERS = 2.0
CREATION_DATE  = 
ORIGINATOR     = 

OBJECT_NAME    = STARLINK-36110
OBJECT_ID      = 2025-286W
CENTER_NAME    = EARTH
REF_FRAME      = TEME
TIME_SYSTEM    = UTC
MEAN_ELEMENT_THEORY = SGP/SGP4

EPOCH          = 2026-01-04T06:00:02.000160
MEAN_MOTION    = 15.39543271
ECCENTRICITY   = .00011841
INCLINATION    = 53.1598
RA_OF_ASC_NODE = 300.1650
ARG_OF_PERICENTER = 88.5474
MEAN_ANOMALY   = 29.1767

EPHEMERIS_TYPE = 0
CLASSIFICATION_TYPE = U
NORAD_CAT_ID   = 66945
ELEMENT_SET_NO = 999
REV_AT_EPOCH   = 560
BSTAR          = .258262E-2
MEAN_MOTION_DOT = .10406E-2
MEAN_MOTION_DDOT = 0

CCSDS_OMM_VERS = 2.0
CREATION_DATE  = 
ORIGINATOR     = 

OBJECT_NAME    = STARLINK-36115
OBJECT_ID      = 2025-286X
CENTER_NAME    = EARTH
REF_FRAME      = TEME
TIME_SYSTEM    = UTC
MEAN_ELEMENT_THEORY = SGP/SGP4

EPOCH          = 2026-01-04T06:00:02.000160
MEAN_MOTION    = 15.43139407
ECCENTRICITY   = .00012511
INCLINATION    = 53.1600
RA_OF_ASC_NODE = 300.0727
ARG_OF_PERICENTER = 81.6858
MEAN_ANOMALY   = 82.5350

EPHEMERIS_TYPE = 0
CLASSIFICATION_TYPE = U
NORAD_CAT_ID   = 66946
ELEMENT_SET_NO = 999
REV_AT_EPOCH   = 560
BSTAR          = -.49585688E-1
MEAN_MOTION_DOT = -.1989351E-1
MEAN_MOTION_DDOT = 0

CCSDS_OMM_VERS = 2.0
CREATION_DATE  = 
ORIGINATOR     = 

OBJECT_NAME    = STARLINK-36089
OBJECT_ID      = 2025-286Y
CENTER_NAME    = EARTH
REF_FRAME      = TEME
TIME_SYSTEM    = UTC
MEAN_ELEMENT_THEORY = SGP/SGP4

EPOCH          = 2026-01-04T05:12:48.936384
MEAN_MOTION    = 15.49329370
ECCENTRICITY   = .00013006
INCLINATION    = 53.1602
RA_OF_ASC_NODE = 300.1909
ARG_OF_PERICENTER = 85.4809
MEAN_ANOMALY   = 274.6349

EPHEMERIS_TYPE = 0
CLASSIFICATION_TYPE = U
NORAD_CAT_ID   = 66947
ELEMENT_SET_NO = 999
REV_AT_EPOCH   = 551
BSTAR          = .169446E-2
MEAN_MOTION_DOT = .95012E-3
MEAN_MOTION_DDOT = 0

CCSDS_OMM_VERS = 2.0
CREATION_DATE  = 
ORIGINATOR     = 

OBJECT_NAME    = STARLINK-36116
OBJECT_ID      = 2025-286Z
CENTER_NAME    = EARTH
REF_FRAME      = TEME
TIME_SYSTEM    = UTC
MEAN_ELEMENT_THEORY = SGP/SGP4

EPOCH          = 2026-01-03T16:00:01.999584
MEAN_MOTION    = 15.48871708
ECCENTRICITY   = .00014301
INCLINATION    = 53.1589
RA_OF_ASC_NODE = 302.8259
ARG_OF_PERICENTER = 98.9482
MEAN_ANOMALY   = 66.7827

EPHEMERIS_TYPE = 0
CLASSIFICATION_TYPE = U
NORAD_CAT_ID   = 66948
ELEMENT_SET_NO = 999
REV_AT_EPOCH   = 551
BSTAR          = -.41633966E-1
MEAN_MOTION_DOT = -.2032769E-1
MEAN_MOTION_DDOT = 0

