STARLINK-36165          
1 66937U 25286N   26004.09199576  .00105374  00000+0  18769-2 0  9994
2 66937  53.1595 300.8347 0001392  52.8867 307.2269 15.49314114  5497
STARLINK-36155          
1 66938U 25286P   26003.33336806 -.00155008  00000+0 -28275-2 0  9994
2 66938  53.1586 304.4574 0001090  88.1775   0.2121 15.49379009  5463
STARLINK-36154          
1 66939U 25286Q   26004.18712566  .00060750  00000+0  15183-2 0  9991
2 66939  53.1606 300.7193 0001041 118.5694 241.5416 15.39586795  5500
STARLINK-36121          
1 66940U 25286R   26004.11756597  .00065334  00000+0  16317-2 0  9991
2 66940  53.1629 300.9962 0001541  70.8613 289.2559 15.39576299  5492
STARLINK-36088          
1 66941U 25286S   26004.21358094  .00087750  00000+0  15672-2 0  9992
2 66941  53.1602 300.1683 0001501  67.4853 292.6315 15.49325174  5516
STARLINK-36100          
1 66942U 25286T   26004.25002315  .00090767  00000+0  22558-2 0  9992
2 66942  53.1590 300.3206 0000719  74.8462 325.5808 15.39571140  5534
STARLINK-36109          
1 66943U 25286U   26004.25002315  .00092859  00000+0  23073-2 0  9990
2 66943  53.1593 300.2176 0001537  89.8177   2.1222 15.39566175  5531
STARLINK-36112          
1 66944U 25286V   26004.25002315 -.00424979  00000+0 -11124-1 0  9998
2 66944  53.1600 300.1140 0001199  88.6581  54.6953 15.39875367  5608
STARLINK-36110          
1 66945U 25286W   26004.25002315  .00104060  00000+0  25826-2 0  9998
2 66945  53.1598 300.1650 0001184  88.5474  29.1767 15.39543271  5601
STARLINK-36115          
1 66946U 25286X   26004.25002315 -.01989351  00000+0 -49586-1 0  9994
2 66946  53.1600 300.0727 0001251  81.6858  82.5350 15.43139407  5603
STARLINK-36089          
1 66947U 25286Y   26004.21723306  .00095012  00000+0  16945-2 0  9994
2 66947  53.1602 300.1909 0001300  85.4809 274.6349 15.49329370  5510
STARLINK-36116          
1 66948U 25286Z   26003.66668981 -.02032769  00000+0 -41634-1 0  9996
2 66948  53.1589 302.8259 0001430  98.9482  66.7827 15.48871708  5519
